{"type": "FeatureCollection", "features": [ {"type": "Feature", "properties": {"norad_id": 32289, "name": "YAOGAN-3", "group": "resource", "lat": -44.26592540325512, "lon": 34.98894040351377, "alt_km": 605.3767947341148, "timestamp": "2025-12-26T18:39:31.928909+00:00", "meta": {"OBJECT_NAME": "YAOGAN-3", "OBJECT_ID": "2007-055A", "EPOCH": "2025-12-26T15:38:09.415968", "MEAN_MOTION": 14.89925997, "ECCENTRICITY": 0.00012317, "INCLINATION": 97.8357, "RA_OF_ASC_NODE": 27.1502, "ARG_OF_PERICENTER": 80.2244, "MEAN_ANOMALY": 279.9112, "EPHEMERIS_TYPE": 0, "CLASSIFICATION_TYPE": "U", "NORAD_CAT_ID": 32289, "ELEMENT_SET_NO": 999, "REV_AT_EPOCH": 98016, "BSTAR": 0.00024336207, "MEAN_MOTION_DOT": 2.287e-05, "MEAN_MOTION_DDOT": 0}, "tle": {"line1": "1 32289U 07055A   25360.65149787  .00002287  00000+0  24336-3 0  9993", "line2": "2 32289  97.8357  27.1502 0001231  80.2244 279.9112 14.89925997980167"}}, "geometry": {"type": "Point", "coordinates": [34.98894040351377, -44.26592540325512]}}, {"type": "Feature", "properties": {"norad_id": 32376, "name": "COSMO-SKYMED 2", "group": "resource", "lat": -23.85748942296042, "lon": -1.622015738808342, "alt_km": 628.5218286021254, "timestamp": "2025-12-26T18:39:31.928920+00:00", "meta": {"OBJECT_NAME": "COSMO-SKYMED 2", "OBJECT_ID": "2007-059A", "EPOCH": "2025-12-26T16:07:16.398912", "MEAN_MOTION": 14.82159872, "ECCENTRICITY": 0.00012951, "INCLINATION": 97.8806, "RA_OF_ASC_NODE": 181.7858, "ARG_OF_PERICENTER": 83.13, "MEAN_ANOMALY": 277.006, "EPHEMERIS_TYPE": 0, "CLASSIFICATION_TYPE": "U", "NORAD_CAT_ID": 32376, "ELEMENT_SET_NO": 999, "REV_AT_EPOCH": 97644, "BSTAR": 8.3902315e-05, "MEAN_MOTION_DOT": 6.16e-06, "MEAN_MOTION_DDOT": 0}, "tle": {"line1": "1 32376U 07059A   25360.67171758  .00000616  00000+0  83902-4 0  9998", "line2": "2 32376  97.8806 181.7858 0001295  83.1300 277.0060 14.82159872976440"}}, "geometry": {"type": "Point", "coordinates": [-1.622015738808342, -23.85748942296042]}}, {"type": "Feature", "properties": {"norad_id": 32382, "name": "RADARSAT-2", "group": "resource", "lat": 40.244787019516956, "lon": -2.1785076316566565, "alt_km": 788.0095771455462, "timestamp": "2025-12-26T18:39:31.928930+00:00", "meta": {"OBJECT_NAME": "RADARSAT-2", "OBJECT_ID": "2007-061A", "EPOCH": "2025-12-26T15:06:36.544896", "MEAN_MOTION": 14.29986012, "ECCENTRICITY": 0.00011291, "INCLINATION": 98.58, "RA_OF_ASC_NODE": 5.0175, "ARG_OF_PERICENTER": 84.8356, "MEAN_ANOMALY": 275.2955, "EPHEMERIS_TYPE": 0, "CLASSIFICATION_TYPE": "U", "NORAD_CAT_ID": 32382, "ELEMENT_SET_NO": 999, "REV_AT_EPOCH": 94129, "BSTAR": 0.00010976, "MEAN_MOTION_DOT": 2.39e-06, "MEAN_MOTION_DDOT": 0}, "tle": {"line1": "1 32382U 07061A   25360.62958964  .00000239  00000+0  10976-3 0  9996", "line2": "2 32382  98.5800   5.0175 0001129  84.8356 275.2955 14.29986012941297"}}, "geometry": {"type": "Point", "coordinates": [-2.1785076316566565, 40.244787019516956]}}, {"type": "Feature", "properties": {"norad_id": 32783, "name": "CARTOSAT-2A", "group": "resource", "lat": -1.7710607448128097, "lon": -130.0817295635846, "alt_km": 641.3829722928831, "timestamp": "2025-12-26T18:39:31.928941+00:00", "meta": {"OBJECT_NAME": "CARTOSAT-2A", "OBJECT_ID": "2008-021A", "EPOCH": "2025-12-26T14:35:30.274656", "MEAN_MOTION": 14.78955866, "ECCENTRICITY": 0.00109015, "INCLINATION": 97.7907, "RA_OF_ASC_NODE": 49.9967, "ARG_OF_PERICENTER": 318.3856, "MEAN_ANOMALY": 41.6525, "EPHEMERIS_TYPE": 0, "CLASSIFICATION_TYPE": "U", "NORAD_CAT_ID": 32783, "ELEMENT_SET_NO": 999, "REV_AT_EPOCH": 95329, "BSTAR": 0.00010073137, "MEAN_MOTION_DOT": 6.93e-06, "MEAN_MOTION_DDOT": 0}, "tle": {"line1": "1 32783U 08021A   25360.60798929  .00000693  00000+0  10073-3 0  9991", "line2": "2 32783  97.7907  49.9967 0010901 318.3856  41.6525 14.78955866953293"}}, "geometry": {"type": "Point", "coordinates": [-130.0817295635846, -1.7710607448128097]}}, {"type": "Feature", "properties": {"norad_id": 33320, "name": "HUANJING 1A (HJ-1A)", "group": "resource", "lat": -82.01828513776428, "lon": 62.0773989773001, "alt_km": 622.8713415135126, "timestamp": "2025-12-26T18:39:31.928957+00:00", "meta": {"OBJECT_NAME": "HUANJING 1A (HJ-1A)", "OBJECT_ID": "2008-041A", "EPOCH": "2025-12-26T14:11:46.641984", "MEAN_MOTION": 14.83437192, "ECCENTRICITY": 0.001906, "INCLINATION": 97.6553, "RA_OF_ASC_NODE": 348.312, "ARG_OF_PERICENTER": 350.0346, "MEAN_ANOMALY": 10.0488, "EPHEMERIS_TYPE": 0, "CLASSIFICATION_TYPE": "U", "NORAD_CAT_ID": 33320, "ELEMENT_SET_NO": 999, "REV_AT_EPOCH": 93281, "BSTAR": 0.00023594641, "MEAN_MOTION_DOT": 1.892e-05, "MEAN_MOTION_DDOT": 0}, "tle": {"line1": "1 33320U 08041A   25360.59151206  .00001892  00000+0  23595-3 0  9995", "line2": "2 33320  97.6553 348.3120 0019060 350.0346  10.0488 14.83437192932812"}}, "geometry": {"type": "Point", "coordinates": [62.0773989773001, -82.01828513776428]}}, {"type": "Feature", "properties": {"norad_id": 33321, "name": "HUANJING 1B (HJ-1B)", "group": "resource", "lat": 73.28830673312937, "lon": -161.28874463772584, "alt_km": 605.7789799712646, "timestamp": "2025-12-26T18:39:31.928968+00:00", "meta": {"OBJECT_NAME": "HUANJING 1B (HJ-1B)", "OBJECT_ID": "2008-041B", "EPOCH": "2025-12-26T14:57:05.472000", "MEAN_MOTION": 14.82859513, "ECCENTRICITY": 0.00376752, "INCLINATION": 97.6412, "RA_OF_ASC_NODE": 352.0026, "ARG_OF_PERICENTER": 31.7378, "MEAN_ANOMALY": 328.6096, "EPHEMERIS_TYPE": 0, "CLASSIFICATION_TYPE": "U", "NORAD_CAT_ID": 33321, "ELEMENT_SET_NO": 999, "REV_AT_EPOCH": 93283, "BSTAR": 0.00022936671, "MEAN_MOTION_DOT": 1.829e-05, "MEAN_MOTION_DDOT": 0}, "tle": {"line1": "1 33321U 08041B   25360.62298000  .00001829  00000+0  22937-3 0  9993", "line2": "2 33321  97.6412 352.0026 0037675  31.7378 328.6096 14.82859513932833"}}, "geometry": {"type": "Point", "coordinates": [-161.28874463772584, 73.28830673312937]}}, {"type": "Feature", "properties": {"norad_id": 33331, "name": "GEOEYE 1", "group": "resource", "lat": -74.93544060846017, "lon": -140.17122397791175, "alt_km": 683.4699410475596, "timestamp": "2025-12-26T18:39:31.928978+00:00", "meta": {"OBJECT_NAME": "GEOEYE 1", "OBJECT_ID": "2008-042A", "EPOCH": "2025-12-26T14:12:31.695264", "MEAN_MOTION": 14.64718673, "ECCENTRICITY": 0.00030703, "INCLINATION": 98.1236, "RA_OF_ASC_NODE": 71.6971, "ARG_OF_PERICENTER": 225.1588, "MEAN_ANOMALY": 134.9366, "EPHEMERIS_TYPE": 0, "CLASSIFICATION_TYPE": "U", "NORAD_CAT_ID": 33331, "ELEMENT_SET_NO": 999, "REV_AT_EPOCH": 92488, "BSTAR": 0.00012695438, "MEAN_MOTION_DOT": 6.28e-06, "MEAN_MOTION_DDOT": 0}, "tle": {"line1": "1 33331U 08042A   25360.59203351  .00000628  00000+0  12695-3 0  9992", "line2": "2 33331  98.1236  71.6971 0003070 225.1588 134.9366 14.64718673924886"}}, "geometry": {"type": "Point", "coordinates": [-140.17122397791175, -74.93544060846017]}}, {"type": "Feature", "properties": {"norad_id": 33396, "name": "THEOS", "group": "resource", "lat": 21.84224583744253, "lon": 54.98037038159828, "alt_km": 824.4031656043189, "timestamp": "2025-12-26T18:39:31.928989+00:00", "meta": {"OBJECT_NAME": "THEOS", "OBJECT_ID": "2008-049A", "EPOCH": "2025-12-26T15:10:23.369952", "MEAN_MOTION": 14.20100767, "ECCENTRICITY": 0.00012031, "INCLINATION": 98.5843, "RA_OF_ASC_NODE": 58.3106, "ARG_OF_PERICENTER": 90.8743, "MEAN_ANOMALY": 269.2572, "EPHEMERIS_TYPE": 0, "CLASSIFICATION_TYPE": "U", "NORAD_CAT_ID": 33396, "ELEMENT_SET_NO": 999, "REV_AT_EPOCH": 89347, "BSTAR": 0.00018892467, "MEAN_MOTION_DOT": 3.6e-06, "MEAN_MOTION_DDOT": 0}, "tle": {"line1": "1 33396U 08049A   25360.63221493  .00000360  00000+0  18892-3 0  9990", "line2": "2 33396  98.5843  58.3106 0001203  90.8743 269.2572 14.20100767893475"}}, "geometry": {"type": "Point", "coordinates": [54.98037038159828, 21.84224583744253]}}, {"type": "Feature", "properties": {"norad_id": 33412, "name": "COSMO-SKYMED 3", "group": "resource", "lat": 81.05530823495252, "lon": 92.57147728082907, "alt_km": 532.6222238066894, "timestamp": "2025-12-26T18:39:31.929000+00:00", "meta": {"OBJECT_NAME": "COSMO-SKYMED 3", "OBJECT_ID": "2008-054A", "EPOCH": "2025-12-26T15:03:05.270112", "MEAN_MOTION": 15.05471932, "ECCENTRICITY": 0.00171277, "INCLINATION": 97.8451, "RA_OF_ASC_NODE": 211.2538, "ARG_OF_PERICENTER": 127.4144, "MEAN_ANOMALY": 232.8644, "EPHEMERIS_TYPE": 0, "CLASSIFICATION_TYPE": "U", "NORAD_CAT_ID": 33412, "ELEMENT_SET_NO": 999, "REV_AT_EPOCH": 93096, "BSTAR": 0.00019381472, "MEAN_MOTION_DOT": 2.728e-05, "MEAN_MOTION_DDOT": 0}, "tle": {"line1": "1 33412U 08054A   25360.62714433  .00002728  00000+0  19381-3 0  9999", "line2": "2 33412  97.8451 211.2538 0017127 127.4144 232.8644 15.05471932930965"}}, "geometry": {"type": "Point", "coordinates": [92.57147728082907, 81.05530823495252]}}, {"type": "Feature", "properties": {"norad_id": 33446, "name": "YAOGAN-4", "group": "resource", "lat": 9.454011209106433, "lon": -70.58805514319434, "alt_km": 623.4013316476066, "timestamp": "2025-12-26T18:39:31.929011+00:00", "meta": {"OBJECT_NAME": "YAOGAN-4", "OBJECT_ID": "2008-061A", "EPOCH": "2025-12-26T05:39:31.954464", "MEAN_MOTION": 14.82721305, "ECCENTRICITY": 0.00129545, "INCLINATION": 97.9198, "RA_OF_ASC_NODE": 290.2038, "ARG_OF_PERICENTER": 275.3518, "MEAN_ANOMALY": 84.6217, "EPHEMERIS_TYPE": 0, "CLASSIFICATION_TYPE": "U", "NORAD_CAT_ID": 33446, "ELEMENT_SET_NO": 999, "REV_AT_EPOCH": 92003, "BSTAR": 0.00018765921, "MEAN_MOTION_DOT": 1.463e-05, "MEAN_MOTION_DDOT": 0}, "tle": {"line1": "1 33446U 08061A   25360.23578651  .00001463  00000+0  18766-3 0  9992", "line2": "2 33446  97.9198 290.2038 0012954 275.3518  84.6217 14.82721305920036"}}, "geometry": {"type": "Point", "coordinates": [-70.58805514319434, 9.454011209106433]}}]}